STARLINK-36834          
1 67959U 26037AD  26086.71481078  .00094879  00000+0  16006-2 0  9993
2 67959  43.0011  90.1245 0001551 277.1069  82.9615 15.50631143  6086
STARLINK-36841          
1 67960U 26037AE  26086.71084016  .00076825  00000+0  13007-2 0  9995
2 67960  42.9985  90.0920 0001166 277.3810  82.6918 15.50619158  6088
STARLINK-36912          
1 67961U 26038A   26086.91667824  .00082654  00000+0  25383-2 0  9990
2 67961  97.2850  97.7073 0001285  90.6236  89.4309 15.33399581  6137
STARLINK-36881          
1 67962U 26038B   26086.91667824  .00083879  00000+0  25754-2 0  9993
2 67962  97.2851  97.7138 0001390 130.3815  64.6678 15.33400251  6134
STARLINK-36357          
1 67963U 26038C   26086.91667824  .00097468  00000+0  29902-2 0  9992
2 67963  97.2848  97.7260 0001740 101.8381 123.2037 15.33364126  6138
STARLINK-36349          
1 67964U 26038D   26086.91667824  .00093298  00000+0  28623-2 0  9999
2 67964  97.2850  97.7174 0001395 109.2708 100.7932 15.33383157  6136
STARLINK-36806          
1 67965U 26038E   26086.91667824  .00085374  00000+0  26209-2 0  9994
2 67965  97.2847  97.7331 0001906  89.8256 150.2210 15.33397724  6131
STARLINK-36820          
1 67966U 26038F   26086.91667824  .00081367  00000+0  24974-2 0  9990
2 67966  97.2846  97.7392 0001808 113.1456 141.8187 15.33422325  6137
STARLINK-36819          
1 67967U 26038G   26086.96649926  .00055539  00000+0  10148-2 0  9999
2 67967  97.2847  97.7148 0001609  99.1253 261.0180 15.49213880  6033
STARLINK-36812          
1 67968U 26038H   26086.91667824  .00084250  00000+0  25867-2 0  9998
2 67968  97.2844  97.7518 0001385  82.8989 202.1517 15.33399191  6132
STARLINK-36709          
1 67969U 26038J   26086.91667824  .00078729  00000+0  24174-2 0  9993
2 67969  97.2844  97.7649 0001841  60.3249 254.6162 15.33422157  6132
STARLINK-36319          
1 67970U 26038K   26086.91667824  .00085248  00000+0  25487-2 0  9997
2 67970  97.2848  97.7266 0001338  86.4324 138.7307 15.34239126  6100
STARLINK-36710          
1 67971U 26038L   26086.91667824  .00078830  00000+0  24222-2 0  9993
2 67971  97.2844  97.7716 0001114  50.7726 279.2717 15.33398988  6139
STARLINK-36894          
1 67972U 26038M   26086.91667824  .00083707  00000+0  25702-2 0  9997
2 67972  97.2846  97.7787 0001274  92.4638 252.5852 15.33400519  6130
STARLINK-36900          
1 67973U 26038N   26086.74809705 -.00165875  00000+0 -31862-2 0  9998
2 67973  97.2851  97.5544 0003203  60.3703 299.7866 15.48514908  6005
STARLINK-36901          
1 67974U 26038P   26086.91667824  .00080087  00000+0  24589-2 0  9999
2 67974  97.2847  97.7845 0001969 110.6868 249.2484 15.33417961  6130
STARLINK-36883          
1 67975U 26038Q   26086.91667824 -.02797533  00000+0 -91332-1 0  9994
2 67975  97.2844  97.8193 0001441  95.8674 338.0279 15.35505479  6132
STARLINK-36880          
1 67976U 26038R   26086.95255822  .00068449  00000+0  12475-2 0  9995
2 67976  97.2849  97.7341 0001920  91.7279 268.4192 15.49228765  6034
STARLINK-36904          
1 67977U 26038S   26086.91667824 -.01937673  00000+0 -63653-1 0  9991
2 67977  97.2849  97.8127 0002014  61.5658 357.2728 15.35147964  6138
STARLINK-36364          
1 67978U 26038T   26086.91667824  .00077496  00000+0  23820-2 0  9990
2 67978  97.2848  97.8289 0001236  84.5320  20.4421 15.33395556  6132
STARLINK-36359          
1 67979U 26038U   26086.91667824  .00081120  00000+0  24260-2 0  9999
2 67979  97.2847  97.7893 0001313 100.0052 271.6743 15.34249244  6134
STARLINK-36882          
1 67980U 26038V   26086.91667824  .00095053  00000+0  28401-2 0  9992
2 67980  97.2847  97.8064 0001346  70.4607 342.5054 15.34214946  6133
STARLINK-36874          
1 67981U 26038W   26086.91667824  .00078622  00000+0  24155-2 0  9998
2 67981  97.2848  97.8351 0001353  90.2894  29.7180 15.33403957  6135
STARLINK-36879          
1 67982U 26038X   26086.74283330  .00074968  00000+0  13660-2 0  9994
2 67982  97.2847  97.5594 0000947  91.1286 269.0074 15.49210691  6009
STARLINK-36867          
1 67983U 26038Y   26086.60037271  .00072542  00000+0  13224-2 0  9993
2 67983  97.2848  97.4463 0001575  96.1982 263.9449 15.49206852  5980
STARLINK-36266          
1 67984U 26038Z   26086.91667824  .00079982  00000+0  24567-2 0  9998
2 67984  97.2849  97.8479 0001174  71.4866  78.4908 15.33406067  6102
STARLINK-36802          
1 67985U 26038AA  26086.93675397  .00277387  00000+0  17931-2 0  9991
2 67985  97.2877  98.2055 0002105  73.8062 286.3435 15.75289537  6065
STARLINK-36535          
1 67986U 26039A   26086.91667824  .00019489  00000+0  69840-3 0  9991
2 67986  42.9997 306.5454 0001448 256.7623 141.3991 15.28391734  5807
STARLINK-36744          
1 67987U 26039B   26086.91667824 -.01843551  00000+0 -71623-1 0  9990
2 67987  42.9997 306.3333 0001677 271.9726 213.1479 15.28974720  5800
STARLINK-36734          
1 67988U 26039C   26086.91667824 -.01930678  00000+0 -37994-1 0  9991
2 67988  42.9996 307.0270 0001201 270.6954 297.0522 15.49604391  5807
STARLINK-36957          
1 67989U 26039D   26086.91667824 -.02175855  00000+0 -77546-1 0  9998
2 67989  42.9988 306.2792 0001171 257.6730 250.9826 15.31746243  5801
STARLINK-36951          
1 67990U 26039E   26086.89192142 -.00300236  00000+0 -78382-2 0  9994
2 67990  42.9987 306.4466 0001646 230.1668 129.9043 15.39232330  4489
STARLINK-36941          
1 67991U 26039F   26086.87883059  .00072776  00000+0  12321-2 0  9991
2 67991  42.9981 307.2345 0001255 249.1149 110.9577 15.50640797  4473
STARLINK-36950          
1 67992U 26039G   26086.91593306  .00072226  00000+0  12306-2 0  9993
2 67992  42.9994 306.6377 0005506 269.7792  90.2437 15.50452038  4486
STARLINK-36975          
1 67993U 26039H   26086.32915547  .00089002  00000+0  15043-2 0  9995
2 67993  43.0005 309.9746 0001252 276.4101  83.6617 15.50605746  4393
STARLINK-36993          
1 67994U 26039J   26086.91667824 -.01862762  00000+0 -58313-1 0  9994
2 67994  42.9998 306.0619 0000972 275.3107 321.5563 15.35827149  5809
STARLINK-36968          
1 67995U 26039K   26086.66574733  .00063943  00000+0  10849-2 0  9997
2 67995  43.0002 308.2058 0000656  99.9619 260.1315 15.50630410  4448
STARLINK-36979          
1 67996U 26039L   26086.91667824 -.01835139  00000+0 -59732-1 0  9990
2 67996  42.9996 305.9853 0001167 258.8909   8.6071 15.34565587  5801
STARLINK-36994          
1 67997U 26039M   26086.87593675 -.00455288  00000+0 -87605-2 0  9991
2 67997  43.0008 306.3206 0001988 254.6480 105.4160 15.48767364  4484
STARLINK-36988          
1 67998U 26039N   26086.91667824 -.01874815  00000+0 -43428-1 0  9991
2 67998  42.9995 306.0577 0001071 264.2833 335.6049 15.44860266  5809
STARLINK-36926          
1 67999U 26039P   26086.87407550  .00089269  00000+0  15734-2 0  9993
2 67999  43.0023 306.3045 0008090 117.2676 242.9009 15.49388678  4483
STARLINK-36931          
1 68000U 26039Q   26086.91667824 -.01919827  00000+0 -47475-1 0  9995
2 68000  42.9998 305.8354 0001330 258.7715  70.1460 15.43028313  5808
STARLINK-36903          
1 68001U 26039R   26086.91667824 -.02349475  00000+0 -88000-1 0  9992
2 68001  42.9993 306.4764 0001748 286.7548 140.0954 15.30455025  5809
STARLINK-36898          
1 68002U 26039S   26086.91667824  .00031076  00000+0  11068-2 0  9995
2 68002  42.9992 306.3147 0001935 251.2546 239.6683 15.28377464  5807
STARLINK-36862          
1 68003U 26039T   26086.91667824  .00022052  00000+0  78889-3 0  9995
2 68003  42.9992 306.4991 0001045 250.2005 164.7906 15.28386006  5805
STARLINK-36888          
1 68004U 26039U   26086.91667824  .00025838  00000+0  92226-3 0  9992
2 68004  42.9993 306.5144 0001686 267.6724 142.4043 15.28384438  5801
STARLINK-36910          
1 68005U 26039V   26086.91667824  .00029840  00000+0  10632-2 0  9990
2 68005  42.9985 306.2540 0001596 262.6056 252.8505 15.28381934  5800
STARLINK-36889          
1 68006U 26039W   26086.91667824 -.01863738  00000+0 -54865-1 0  9991
2 68006  42.9998 306.2321 0001030 280.0132 247.2041 15.37712812  5800
STARLINK-36592          
1 68007U 26039X   26086.91667824 -.02186820  00000+0 -77100-1 0  9990
2 68007  43.0002 306.1177 0001698 251.9925 319.8333 15.32101768  5801
STARLINK-36911          
1 68008U 26039Y   26086.91667824 -.01818598  00000+0 -56831-1 0  9992
2 68008  42.9997 306.0734 0001121 267.8526 323.2206 15.35796591  5800
STARLINK-36956          
1 68009U 26039Z   26086.91667824 -.01863898  00000+0 -54342-1 0  9991
2 68009  43.0001 306.0766 0001028 274.9679 315.0189 15.38007457  5806
STARLINK-36953          
1 68010U 26039AA  26086.91667824 -.02224838  00000+0 -82007-1 0  9998
2 68010  42.9986 305.8140 0001236 292.7559  41.6360 15.30758407  5800
STARLINK-36991          
1 68011U 26039AB  26086.91248111  .00081003  00000+0  13714-2 0  9994
2 68011  43.0025 306.6079 0002417 278.4615  81.5971 15.50597025  4486
STARLINK-36936          
1 68012U 26039AC  26086.91667824 -.01875118  00000+0 -45446-1 0  9998
2 68012  43.0002 305.9242 0001245 250.4791  41.5289 15.43540334  5807
STARLINK-36967          
1 68013U 26039AD  26086.32740020  .00069652  00000+0  11818-2 0  9996
2 68013  43.0010 309.9558 0000973 282.6644  77.4107 15.50598144  4392
STARLINK-36985          
1 68014U 26039AE  26086.83335648 -.02195939  00000+0 -77569-1 0  9995
2 68014  42.9997 306.1892 0001592 266.2718   7.4850 15.32057681  5792
STARLINK-36335          
1 68015U 26040A   26086.84933361  .00181507  00000+0  11885-2 0  9997
2 68015  97.2870  36.1844 0001275  92.9276 267.2135 15.75259164  4219
STARLINK-36923          
1 68016U 26040B   26086.84827498  .00295418  00000+0  19053-2 0  9993
2 68016  97.2851  36.1862 0002434 108.7353 251.4177 15.75291562  4218
STARLINK-36568          
1 68017U 26040C   26086.84756959  .00191084  00000+0  12513-2 0  9995
2 68017  97.2859  36.1883 0001168 128.7377 231.3993 15.75231634  4218
